SHIJIAN-16 (SJ-16)      
1 39358U 13057A   25334.86748854  .00002039  00000+0  20369-3 0  9997
2 39358  74.9741  12.1178 0017258 347.9085  12.1686 14.91937926656766
SL-4 R/B                
1 39679U 14021B   25334.77810615  .00014979  00000+0  35983-3 0  9994
2 39679  51.6062  98.7069 0102872 103.1949 258.0535 15.36207421641057
ALOS-2                  
1 39766U 14029A   25334.83960149  .00002012  00000+0  27599-3 0  9993
2 39766  97.9232  69.8550 0001366  99.6181 260.5185 14.79499458622252
YAOGAN-29               
1 41038U 15069A   25334.87605324  .00000495  00000+0  67853-4 0  9999
2 41038  98.0230 358.0091 0000949  13.6187 346.5051 14.82860926541239
ASTRO-H (HITOMI)        
1 41337U 16012A   25334.85222751  .00003478  00000+0  20742-3 0  9996
2 41337  31.0002 274.0015 0009481  57.5962 302.5592 15.09232522537283
HXMT (HUIYAN)           
1 42758U 17034A   25334.86664503  .00005237  00000+0  27542-3 0  9995
2 42758  43.0135 205.5092 0033277 327.9773  31.9053 15.16092384467532
CZ-2C R/B               
1 43521U 18054D   25334.16482381  .00108571  00000+0  81451-3 0  9996
2 43521  35.1342 265.9782 0018773  12.2682 347.8505 15.71049687413076
SAOCOM 1A               
1 43641U 18076A   25334.85756245  .00000531  00000+0  73292-4 0  9994
2 43641  97.8848 159.4526 0001577  87.4688 272.6706 14.82155967386721
H-2A R/B                
1 43682U 18084L   25334.77915395  .00018630  00000+0  51454-3 0  9996
2 43682  98.8785 166.3847 0028297   7.4003 352.7648 15.36736368390563
SAOCOM 1B               
1 46265U 20059A   25334.82128003  .00000543  00000+0  74722-4 0  9997
2 46265  97.8844 158.5181 0001358  90.5276 269.6093 14.82164665284103
CSS (TIANHE)            
1 48274U 21035A   25334.73382892  .00016075  00000+0  20845-3 0  9995
2 48274  41.4667  89.5523 0010491 301.4921  58.4891 15.58437522262155
COSMOS 2550             
1 48865U 21056A   25333.81495336 -.00000143  00000+0  14678-5 0  9999
2 48865  67.1430 343.0291 0008393 269.4513  90.5680 15.33825458248140
