CCSDS_OMM_VERS = 2.0
CREATION_DATE  = 
ORIGINATOR     = 

OBJECT_NAME    = SHIJIAN-16 (SJ-16)
OBJECT_ID      = 2013-057A
CENTER_NAME    = EARTH
REF_FRAME      = TEME
TIME_SYSTEM    = UTC
MEAN_ELEMENT_THEORY = SGP/SGP4

EPOCH          = 2025-11-30T20:49:11.009856
MEAN_MOTION    = 14.91937926
ECCENTRICITY   = .0017258
INCLINATION    = 74.9741
RA_OF_ASC_NODE = 12.1178
ARG_OF_PERICENTER = 347.9085
MEAN_ANOMALY   = 12.1686

EPHEMERIS_TYPE = 0
CLASSIFICATION_TYPE = U
NORAD_CAT_ID   = 39358
ELEMENT_SET_NO = 999
REV_AT_EPOCH   = 65676
BSTAR          = .20369E-3
MEAN_MOTION_DOT = .2039E-4
MEAN_MOTION_DDOT = 0

CCSDS_OMM_VERS = 2.0
CREATION_DATE  = 
ORIGINATOR     = 

OBJECT_NAME    = SL-4 R/B
OBJECT_ID      = 2014-021B
CENTER_NAME    = EARTH
REF_FRAME      = TEME
TIME_SYSTEM    = UTC
MEAN_ELEMENT_THEORY = SGP/SGP4

EPOCH          = 2025-11-30T18:40:28.371360
MEAN_MOTION    = 15.36207421
ECCENTRICITY   = .0102872
INCLINATION    = 51.6062
RA_OF_ASC_NODE = 98.7069
ARG_OF_PERICENTER = 103.1949
MEAN_ANOMALY   = 258.0535

EPHEMERIS_TYPE = 0
CLASSIFICATION_TYPE = U
NORAD_CAT_ID   = 39679
ELEMENT_SET_NO = 999
REV_AT_EPOCH   = 64105
BSTAR          = .35983E-3
MEAN_MOTION_DOT = .14979E-3
MEAN_MOTION_DDOT = 0

CCSDS_OMM_VERS = 2.0
CREATION_DATE  = 
ORIGINATOR     = 

OBJECT_NAME    = ALOS-2
OBJECT_ID      = 2014-029A
CENTER_NAME    = EARTH
REF_FRAME      = TEME
TIME_SYSTEM    = UTC
MEAN_ELEMENT_THEORY = SGP/SGP4

EPOCH          = 2025-11-30T20:09:01.568736
MEAN_MOTION    = 14.79499458
ECCENTRICITY   = .0001366
INCLINATION    = 97.9232
RA_OF_ASC_NODE = 69.8550
ARG_OF_PERICENTER = 99.6181
MEAN_ANOMALY   = 260.5185

EPHEMERIS_TYPE = 0
CLASSIFICATION_TYPE = U
NORAD_CAT_ID   = 39766
ELEMENT_SET_NO = 999
REV_AT_EPOCH   = 62225
BSTAR          = .27599E-3
MEAN_MOTION_DOT = .2012E-4
MEAN_MOTION_DDOT = 0

CCSDS_OMM_VERS = 2.0
CREATION_DATE  = 
ORIGINATOR     = 

OBJECT_NAME    = YAOGAN-29
OBJECT_ID      = 2015-069A
CENTER_NAME    = EARTH
REF_FRAME      = TEME
TIME_SYSTEM    = UTC
MEAN_ELEMENT_THEORY = SGP/SGP4

EPOCH          = 2025-11-30T21:01:30.999936
MEAN_MOTION    = 14.82860926
ECCENTRICITY   = .0000949
INCLINATION    = 98.0230
RA_OF_ASC_NODE = 358.0091
ARG_OF_PERICENTER = 13.6187
MEAN_ANOMALY   = 346.5051

EPHEMERIS_TYPE = 0
CLASSIFICATION_TYPE = U
NORAD_CAT_ID   = 41038
ELEMENT_SET_NO = 999
REV_AT_EPOCH   = 54123
BSTAR          = .67853E-4
MEAN_MOTION_DOT = .495E-5
MEAN_MOTION_DDOT = 0

CCSDS_OMM_VERS = 2.0
CREATION_DATE  = 
ORIGINATOR     = 

OBJECT_NAME    = ASTRO-H (HITOMI)
OBJECT_ID      = 2016-012A
CENTER_NAME    = EARTH
REF_FRAME      = TEME
TIME_SYSTEM    = UTC
MEAN_ELEMENT_THEORY = SGP/SGP4

EPOCH          = 2025-11-30T20:27:12.456864
MEAN_MOTION    = 15.09232522
ECCENTRICITY   = .0009481
INCLINATION    = 31.0002
RA_OF_ASC_NODE = 274.0015
ARG_OF_PERICENTER = 57.5962
MEAN_ANOMALY   = 302.5592

EPHEMERIS_TYPE = 0
CLASSIFICATION_TYPE = U
NORAD_CAT_ID   = 41337
ELEMENT_SET_NO = 999
REV_AT_EPOCH   = 53728
BSTAR          = .20742E-3
MEAN_MOTION_DOT = .3478E-4
MEAN_MOTION_DDOT = 0

CCSDS_OMM_VERS = 2.0
CREATION_DATE  = 
ORIGINATOR     = 

OBJECT_NAME    = HXMT (HUIYAN)
OBJECT_ID      = 2017-034A
CENTER_NAME    = EARTH
REF_FRAME      = TEME
TIME_SYSTEM    = UTC
MEAN_ELEMENT_THEORY = SGP/SGP4

EPOCH          = 2025-11-30T20:47:58.130592
MEAN_MOTION    = 15.16092384
ECCENTRICITY   = .0033277
INCLINATION    = 43.0135
RA_OF_ASC_NODE = 205.5092
ARG_OF_PERICENTER = 327.9773
MEAN_ANOMALY   = 31.9053

EPHEMERIS_TYPE = 0
CLASSIFICATION_TYPE = U
NORAD_CAT_ID   = 42758
ELEMENT_SET_NO = 999
REV_AT_EPOCH   = 46753
BSTAR          = .27542E-3
MEAN_MOTION_DOT = .5237E-4
MEAN_MOTION_DDOT = 0

CCSDS_OMM_VERS = 2.0
CREATION_DATE  = 
ORIGINATOR     = 

OBJECT_NAME    = CZ-2C R/B
OBJECT_ID      = 2018-054D
CENTER_NAME    = EARTH
REF_FRAME      = TEME
TIME_SYSTEM    = UTC
MEAN_ELEMENT_THEORY = SGP/SGP4

EPOCH          = 2025-11-30T03:57:20.777184
MEAN_MOTION    = 15.71049687
ECCENTRICITY   = .00187733
INCLINATION    = 35.1342
RA_OF_ASC_NODE = 265.9782
ARG_OF_PERICENTER = 12.2682
MEAN_ANOMALY   = 347.8505

EPHEMERIS_TYPE = 0
CLASSIFICATION_TYPE = U
NORAD_CAT_ID   = 43521
ELEMENT_SET_NO = 999
REV_AT_EPOCH   = 41307
BSTAR          = .81450853E-3
MEAN_MOTION_DOT = .108571E-2
MEAN_MOTION_DDOT = 0

CCSDS_OMM_VERS = 2.0
CREATION_DATE  = 
ORIGINATOR     = 

OBJECT_NAME    = SAOCOM 1A
OBJECT_ID      = 2018-076A
CENTER_NAME    = EARTH
REF_FRAME      = TEME
TIME_SYSTEM    = UTC
MEAN_ELEMENT_THEORY = SGP/SGP4

EPOCH          = 2025-11-30T20:34:53.395680
MEAN_MOTION    = 14.82155967
ECCENTRICITY   = .0001577
INCLINATION    = 97.8848
RA_OF_ASC_NODE = 159.4526
ARG_OF_PERICENTER = 87.4688
MEAN_ANOMALY   = 272.6706

EPHEMERIS_TYPE = 0
CLASSIFICATION_TYPE = U
NORAD_CAT_ID   = 43641
ELEMENT_SET_NO = 999
REV_AT_EPOCH   = 38672
BSTAR          = .73292E-4
MEAN_MOTION_DOT = .531E-5
MEAN_MOTION_DDOT = 0

CCSDS_OMM_VERS = 2.0
CREATION_DATE  = 
ORIGINATOR     = 

OBJECT_NAME    = H-2A R/B
OBJECT_ID      = 2018-084L
CENTER_NAME    = EARTH
REF_FRAME      = TEME
TIME_SYSTEM    = UTC
MEAN_ELEMENT_THEORY = SGP/SGP4

EPOCH          = 2025-11-30T18:41:58.901280
MEAN_MOTION    = 15.36736368
ECCENTRICITY   = .0028297
INCLINATION    = 98.8785
RA_OF_ASC_NODE = 166.3847
ARG_OF_PERICENTER = 7.4003
MEAN_ANOMALY   = 352.7648

EPHEMERIS_TYPE = 0
CLASSIFICATION_TYPE = U
NORAD_CAT_ID   = 43682
ELEMENT_SET_NO = 999
REV_AT_EPOCH   = 39056
BSTAR          = .51454E-3
MEAN_MOTION_DOT = .1863E-3
MEAN_MOTION_DDOT = 0

CCSDS_OMM_VERS = 2.0
CREATION_DATE  = 
ORIGINATOR     = 

OBJECT_NAME    = SAOCOM 1B
OBJECT_ID      = 2020-059A
CENTER_NAME    = EARTH
REF_FRAME      = TEME
TIME_SYSTEM    = UTC
MEAN_ELEMENT_THEORY = SGP/SGP4

EPOCH          = 2025-11-30T19:42:38.594592
MEAN_MOTION    = 14.82164665
ECCENTRICITY   = .0001358
INCLINATION    = 97.8844
RA_OF_ASC_NODE = 158.5181
ARG_OF_PERICENTER = 90.5276
MEAN_ANOMALY   = 269.6093

EPHEMERIS_TYPE = 0
CLASSIFICATION_TYPE = U
NORAD_CAT_ID   = 46265
ELEMENT_SET_NO = 999
REV_AT_EPOCH   = 28410
BSTAR          = .74722E-4
MEAN_MOTION_DOT = .543E-5
MEAN_MOTION_DDOT = 0

CCSDS_OMM_VERS = 2.0
CREATION_DATE  = 
ORIGINATOR     = 

OBJECT_NAME    = CSS (TIANHE)
OBJECT_ID      = 2021-035A
CENTER_NAME    = EARTH
REF_FRAME      = TEME
TIME_SYSTEM    = UTC
MEAN_ELEMENT_THEORY = SGP/SGP4

EPOCH          = 2025-11-30T17:36:42.818688
MEAN_MOTION    = 15.58437522
ECCENTRICITY   = .0010491
INCLINATION    = 41.4667
RA_OF_ASC_NODE = 89.5523
ARG_OF_PERICENTER = 301.4921
MEAN_ANOMALY   = 58.4891

EPHEMERIS_TYPE = 0
CLASSIFICATION_TYPE = U
NORAD_CAT_ID   = 48274
ELEMENT_SET_NO = 999
REV_AT_EPOCH   = 26215
BSTAR          = .20845E-3
MEAN_MOTION_DOT = .16075E-3
MEAN_MOTION_DDOT = 0

CCSDS_OMM_VERS = 2.0
CREATION_DATE  = 
ORIGINATOR     = 

OBJECT_NAME    = COSMOS 2550
OBJECT_ID      = 2021-056A
CENTER_NAME    = EARTH
REF_FRAME      = TEME
TIME_SYSTEM    = UTC
MEAN_ELEMENT_THEORY = SGP/SGP4

EPOCH          = 2025-11-29T19:33:31.970304
MEAN_MOTION    = 15.33825458
ECCENTRICITY   = .00083936
INCLINATION    = 67.1430
RA_OF_ASC_NODE = 343.0291
ARG_OF_PERICENTER = 269.4513
MEAN_ANOMALY   = 90.5680

EPHEMERIS_TYPE = 0
CLASSIFICATION_TYPE = U
NORAD_CAT_ID   = 48865
ELEMENT_SET_NO = 999
REV_AT_EPOCH   = 24814
BSTAR          = .1467811E-5
MEAN_MOTION_DOT = -.143E-5
MEAN_MOTION_DDOT = 0

